{"type": "FeatureCollection", "features": [ {"type": "Feature", "properties": {"norad_id": 37906, "name": "FENGYUN 1C DEB", "group": "fengyun-1c-debris", "lat": 51.43581513989658, "lon": 15.081751836404319, "alt_km": 846.5480232975833, "timestamp": "2025-12-12T11:38:31.701524+00:00", "meta": {"OBJECT_NAME": "FENGYUN 1C DEB", "OBJECT_ID": "1999-025ENF", "EPOCH": "2025-12-10T09:03:53.057088", "MEAN_MOTION": 13.80782296, "ECCENTRICITY": 0.01623387, "INCLINATION": 99.6029, "RA_OF_ASC_NODE": 25.2001, "ARG_OF_PERICENTER": 34.7127, "MEAN_ANOMALY": 347.1535, "EPHEMERIS_TYPE": 0, "CLASSIFICATION_TYPE": "U", "NORAD_CAT_ID": 37906, "ELEMENT_SET_NO": 999, "REV_AT_EPOCH": 59423, "BSTAR": 0.00082923409, "MEAN_MOTION_DOT": 9.18e-06, "MEAN_MOTION_DDOT": 0}, "tle": {"line1": "1 37906U 99025ENF 25344.37769742  .00000918  00000+0  82923-3 0  9997", "line2": "2 37906  99.6029  25.2001 0162338  34.7127 347.1535 13.80782296594236"}}, "geometry": {"type": "Point", "coordinates": [15.081751836404319, 51.43581513989658]}}, {"type": "Feature", "properties": {"norad_id": 37907, "name": "FENGYUN 1C DEB", "group": "fengyun-1c-debris", "lat": -43.49120154315563, "lon": 108.18190493621752, "alt_km": 848.92794560531, "timestamp": "2025-12-12T11:38:31.701534+00:00", "meta": {"OBJECT_NAME": "FENGYUN 1C DEB", "OBJECT_ID": "1999-025ENG", "EPOCH": "2025-12-11T13:55:19.191936", "MEAN_MOTION": 14.23531669, "ECCENTRICITY": 0.00636609, "INCLINATION": 99.0808, "RA_OF_ASC_NODE": 98.5214, "ARG_OF_PERICENTER": 188.9882, "MEAN_ANOMALY": 171.016, "EPHEMERIS_TYPE": 0, "CLASSIFICATION_TYPE": "U", "NORAD_CAT_ID": 37907, "ELEMENT_SET_NO": 999, "REV_AT_EPOCH": 83256, "BSTAR": 0.0046875695, "MEAN_MOTION_DOT": 0.0001086, "MEAN_MOTION_DDOT": 0}, "tle": {"line1": "1 37907U 99025ENG 25345.58008324  .00010860  00000+0  46876-2 0  9997", "line2": "2 37907  99.0808  98.5214 0063660 188.9882 171.0160 14.23531669832566"}}, "geometry": {"type": "Point", "coordinates": [108.18190493621752, -43.49120154315563]}}, {"type": "Feature", "properties": {"norad_id": 37908, "name": "FENGYUN 1C DEB", "group": "fengyun-1c-debris", "lat": 75.66957609930199, "lon": -20.75956475669192, "alt_km": 752.3138166930066, "timestamp": "2025-12-12T11:38:31.701544+00:00", "meta": {"OBJECT_NAME": "FENGYUN 1C DEB", "OBJECT_ID": "1999-025ENH", "EPOCH": "2025-12-06T19:52:32.356992", "MEAN_MOTION": 14.36573191, "ECCENTRICITY": 0.00744593, "INCLINATION": 99.1512, "RA_OF_ASC_NODE": 12.3562, "ARG_OF_PERICENTER": 174.8209, "MEAN_ANOMALY": 185.3763, "EPHEMERIS_TYPE": 0, "CLASSIFICATION_TYPE": "U", "NORAD_CAT_ID": 37908, "ELEMENT_SET_NO": 999, "REV_AT_EPOCH": 63976, "BSTAR": 0.0009644739, "MEAN_MOTION_DOT": 2.877e-05, "MEAN_MOTION_DDOT": 0}, "tle": {"line1": "1 37908U 99025ENH 25340.82815228  .00002877  00000+0  96447-3 0  9998", "line2": "2 37908  99.1512  12.3562 0074459 174.8209 185.3763 14.36573191639769"}}, "geometry": {"type": "Point", "coordinates": [-20.75956475669192, 75.66957609930199]}}, {"type": "Feature", "properties": {"norad_id": 37912, "name": "FENGYUN 1C DEB", "group": "fengyun-1c-debris", "lat": 80.76406453093122, "lon": -134.86860618477948, "alt_km": 789.2229025841398, "timestamp": "2025-12-12T11:38:31.701554+00:00", "meta": {"OBJECT_NAME": "FENGYUN 1C DEB", "OBJECT_ID": "1999-025ENM", "EPOCH": "2025-12-07T08:43:49.203552", "MEAN_MOTION": 14.11418958, "ECCENTRICITY": 0.00911955, "INCLINATION": 99.2302, "RA_OF_ASC_NODE": 309.8335, "ARG_OF_PERICENTER": 74.9151, "MEAN_ANOMALY": 286.2087, "EPHEMERIS_TYPE": 0, "CLASSIFICATION_TYPE": "U", "NORAD_CAT_ID": 37912, "ELEMENT_SET_NO": 999, "REV_AT_EPOCH": 77212, "BSTAR": 0.0037768803, "MEAN_MOTION_DOT": 7.072e-05, "MEAN_MOTION_DDOT": 0}, "tle": {"line1": "1 37912U 99025ENM 25341.36376393  .00007072  00000+0  37769-2 0  9991", "line2": "2 37912  99.2302 309.8335 0091195  74.9151 286.2087 14.11418958772126"}}, "geometry": {"type": "Point", "coordinates": [-134.86860618477948, 80.76406453093122]}}, {"type": "Feature", "properties": {"norad_id": 37918, "name": "FENGYUN 1C DEB", "group": "fengyun-1c-debris", "lat": 70.5675241572559, "lon": 142.71559321413838, "alt_km": 809.7305139259624, "timestamp": "2025-12-12T11:38:31.701564+00:00", "meta": {"OBJECT_NAME": "FENGYUN 1C DEB", "OBJECT_ID": "1999-025ENT", "EPOCH": "2025-12-08T03:20:36.333888", "MEAN_MOTION": 14.34353658, "ECCENTRICITY": 0.0055221, "INCLINATION": 99.0272, "RA_OF_ASC_NODE": 291.3959, "ARG_OF_PERICENTER": 297.4796, "MEAN_ANOMALY": 62.078, "EPHEMERIS_TYPE": 0, "CLASSIFICATION_TYPE": "U", "NORAD_CAT_ID": 37918, "ELEMENT_SET_NO": 999, "REV_AT_EPOCH": 3476, "BSTAR": 0.0011500332, "MEAN_MOTION_DOT": 3.242e-05, "MEAN_MOTION_DDOT": 0}, "tle": {"line1": "1 37918U 99025ENT 25342.13930942  .00003242  00000+0  11500-2 0  9999", "line2": "2 37918  99.0272 291.3959 0055221 297.4796  62.0780 14.34353658 34761"}}, "geometry": {"type": "Point", "coordinates": [142.71559321413838, 70.5675241572559]}}, {"type": "Feature", "properties": {"norad_id": 37919, "name": "FENGYUN 1C DEB", "group": "fengyun-1c-debris", "lat": -70.47005066692194, "lon": -48.85440806735423, "alt_km": 809.2836400686829, "timestamp": "2025-12-12T11:38:31.701574+00:00", "meta": {"OBJECT_NAME": "FENGYUN 1C DEB", "OBJECT_ID": "1999-025ENU", "EPOCH": "2025-12-05T06:37:21.613440", "MEAN_MOTION": 14.26732064, "ECCENTRICITY": 0.00501439, "INCLINATION": 99.0565, "RA_OF_ASC_NODE": 276.9671, "ARG_OF_PERICENTER": 37.6316, "MEAN_ANOMALY": 322.8355, "EPHEMERIS_TYPE": 0, "CLASSIFICATION_TYPE": "U", "NORAD_CAT_ID": 37919, "ELEMENT_SET_NO": 999, "REV_AT_EPOCH": 64802, "BSTAR": 0.00094687739, "MEAN_MOTION_DOT": 2.276e-05, "MEAN_MOTION_DDOT": 0}, "tle": {"line1": "1 37919U 99025ENU 25339.27594460  .00002276  00000+0  94688-3 0  9997", "line2": "2 37919  99.0565 276.9671 0050143  37.6316 322.8355 14.26732064648025"}}, "geometry": {"type": "Point", "coordinates": [-48.85440806735423, -70.47005066692194]}}, {"type": "Feature", "properties": {"norad_id": 37921, "name": "FENGYUN 1C DEB", "group": "fengyun-1c-debris", "lat": -68.9983129429292, "lon": -176.88034741684524, "alt_km": 971.7823644743094, "timestamp": "2025-12-12T11:38:31.701584+00:00", "meta": {"OBJECT_NAME": "FENGYUN 1C DEB", "OBJECT_ID": "1999-025ENW", "EPOCH": "2025-12-10T22:18:18.133056", "MEAN_MOTION": 13.9515476, "ECCENTRICITY": 0.0084315, "INCLINATION": 99.0227, "RA_OF_ASC_NODE": 26.047, "ARG_OF_PERICENTER": 103.6067, "MEAN_ANOMALY": 257.4502, "EPHEMERIS_TYPE": 0, "CLASSIFICATION_TYPE": "U", "NORAD_CAT_ID": 37921, "ELEMENT_SET_NO": 999, "REV_AT_EPOCH": 63122, "BSTAR": 0.0002137, "MEAN_MOTION_DOT": 2.54e-06, "MEAN_MOTION_DDOT": 0}, "tle": {"line1": "1 37921U 99025ENW 25344.92937654  .00000254  00000+0  21370-3 0  9996", "line2": "2 37921  99.0227  26.0470 0084315 103.6067 257.4502 13.95154760631226"}}, "geometry": {"type": "Point", "coordinates": [-176.88034741684524, -68.9983129429292]}}, {"type": "Feature", "properties": {"norad_id": 37925, "name": "FENGYUN 1C DEB", "group": "fengyun-1c-debris", "lat": -55.868935020139844, "lon": -130.74135989593236, "alt_km": 604.8564646393197, "timestamp": "2025-12-12T11:38:31.701593+00:00", "meta": {"OBJECT_NAME": "FENGYUN 1C DEB", "OBJECT_ID": "1999-025EPA", "EPOCH": "2025-12-03T08:51:08.944992", "MEAN_MOTION": 14.79858027, "ECCENTRICITY": 0.0057842, "INCLINATION": 99.0872, "RA_OF_ASC_NODE": 205.2959, "ARG_OF_PERICENTER": 11.9768, "MEAN_ANOMALY": 348.28, "EPHEMERIS_TYPE": 0, "CLASSIFICATION_TYPE": "U", "NORAD_CAT_ID": 37925, "ELEMENT_SET_NO": 999, "REV_AT_EPOCH": 65544, "BSTAR": 0.0022468503, "MEAN_MOTION_DOT": 0.00017399, "MEAN_MOTION_DDOT": 0}, "tle": {"line1": "1 37925U 99025EPA 25337.36885353  .00017399  00000+0  22469-2 0  9995", "line2": "2 37925  99.0872 205.2959 0057842  11.9768 348.2800 14.79858027655443"}}, "geometry": {"type": "Point", "coordinates": [-130.74135989593236, -55.868935020139844]}}, {"type": "Feature", "properties": {"norad_id": 37926, "name": "FENGYUN 1C DEB", "group": "fengyun-1c-debris", "lat": -23.746962041030773, "lon": -134.2166519668953, "alt_km": 779.6757362184371, "timestamp": "2025-12-12T11:38:31.701603+00:00", "meta": {"OBJECT_NAME": "FENGYUN 1C DEB", "OBJECT_ID": "1999-025EPB", "EPOCH": "2025-12-10T15:34:14.229984", "MEAN_MOTION": 14.24195204, "ECCENTRICITY": 0.005394, "INCLINATION": 98.723, "RA_OF_ASC_NODE": 47.834, "ARG_OF_PERICENTER": 227.3034, "MEAN_ANOMALY": 287.1053, "EPHEMERIS_TYPE": 0, "CLASSIFICATION_TYPE": "U", "NORAD_CAT_ID": 37926, "ELEMENT_SET_NO": 999, "REV_AT_EPOCH": 74240, "BSTAR": 0.0024435, "MEAN_MOTION_DOT": 5.676e-05, "MEAN_MOTION_DDOT": 0}, "tle": {"line1": "1 37926U 99025EPB 25344.64877581  .00005676  00000+0  24435-2 0  9999", "line2": "2 37926  98.7230  47.8340 0053940 227.3034 287.1053 14.24195204742401"}}, "geometry": {"type": "Point", "coordinates": [-134.2166519668953, -23.746962041030773]}}, {"type": "Feature", "properties": {"norad_id": 37927, "name": "FENGYUN 1C DEB", "group": "fengyun-1c-debris", "lat": 51.72459600462285, "lon": -38.52042998637253, "alt_km": 655.4416252275341, "timestamp": "2025-12-12T11:38:31.701613+00:00", "meta": {"OBJECT_NAME": "FENGYUN 1C DEB", "OBJECT_ID": "1999-025EPC", "EPOCH": "2025-12-08T15:40:42.564288", "MEAN_MOTION": 14.71415555, "ECCENTRICITY": 0.0007916, "INCLINATION": 98.8087, "RA_OF_ASC_NODE": 126.0022, "ARG_OF_PERICENTER": 283.7555, "MEAN_ANOMALY": 76.2768, "EPHEMERIS_TYPE": 0, "CLASSIFICATION_TYPE": "U", "NORAD_CAT_ID": 37927, "ELEMENT_SET_NO": 999, "REV_AT_EPOCH": 65056, "BSTAR": 0.0054829, "MEAN_MOTION_DOT": 0.00034083, "MEAN_MOTION_DDOT": 0}, "tle": {"line1": "1 37927U 99025EPC 25342.65327042  .00034083  00000+0  54829-2 0  9995", "line2": "2 37927  98.8087 126.0022 0007916 283.7555  76.2768 14.71415555650567"}}, "geometry": {"type": "Point", "coordinates": [-38.52042998637253, 51.72459600462285]}}]}